COSMOS 2058             
1 20465U 90010A   26204.20058316  .00002749  00000+0  15754-3 0  9992
2 20465  82.4676 273.8362 0008687 217.9377 142.1243 15.12192297962719
SL-14 R/B               
1 20466U 90010B   26204.24967589  .00000318  00000+0  35556-4 0  9991
2 20466  82.5042 140.0798 0018911 209.1752 150.8409 14.83666718948587
SL-14 R/B               
1 20511U 90018B   26204.19547069  .00000299  00000+0  34498-4 0  9993
2 20511  82.5212  96.4520 0016410  11.6136 348.5454 14.82237797942656
HST                     
1 20580U 90037B   26204.25693192  .00005734  00000+0  17776-3 0  9994
2 20580  28.4721 193.9755 0001928 181.0239 179.0353 15.31122099794106
SL-16 R/B               
1 20625U 90046B   26203.93000498  .00000240  00000+0  14819-3 0  9991
2 20625  71.0000  13.8774 0012161 100.4717 259.7776 14.15029706867522
COSMOS 2084             
1 20663U 90055A   26204.17810446  .00001357  00000+0  10577-3 0  9999
2 20663  62.7872 233.2353 0009109 324.7293  35.3204 15.06243342956727
SL-6 R/B(2)             
1 20666U 90055D   26204.28354415  .00001940  00000+0  15086-3 0  9991
2 20666  62.7814 152.5329 0046363  10.1325 350.0698 15.04114726958588
SL-8 R/B                
1 20775U 90078B   26204.24790944  .00009654  00000+0  27375-3 0  9998
2 20775  82.9030 129.0193 0342666 276.0916  80.1369 14.93715857829509
SL-8 R/B                
1 21088U 91006B   26204.17477043  .00000102  00000+0  86941-4 0  9996
2 21088  82.9401  69.2576 0022941  18.9208  98.8235 13.77510541782721
OKEAN-3                 
1 21397U 91039A   26204.09857759  .00002081  00000+0  14273-3 0  9998
2 21397  82.5152 205.5528 0013144 223.9877 136.0305 15.05465730885404
COSMOS 2151             
1 21422U 91042A   26204.27061801  .00001222  00000+0  94760-4 0  9992
2 21422  82.4982 312.8585 0011267 326.9368  33.1151 15.00530339883521
SL-14 R/B               
1 21423U 91042B   26204.14218556  .00000273  00000+0  31488-4 0  9993
2 21423  82.4926  93.1785 0017657 151.3927 208.8260 14.81921310873130
ERS-1                   
1 21574U 91050A   26204.30856425  .00000221  00000+0  85225-4 0  9991
2 21574  98.7795 225.8886 0032395 157.9436 202.3153 14.39537074835243
ARIANE 40 R/B           
1 21610U 91050F   26204.10695536  .00000217  00000+0  77316-4 0  9991
2 21610  98.1857 251.1211 0003759  43.4344 316.7143 14.42975161838520
INTERCOSMOS 25          
1 21819U 91086A   26204.10007319  .00001174  00000+0  22782-3 0  9996
2 21819  82.6000 228.0776 1484935 184.8719 173.6395 12.12249127513096
SL-8 R/B                
1 21876U 92008B   26203.33910613  .00000143  00000+0  13043-3 0  9993
2 21876  82.9281 167.6527 0035984 117.2682  35.5369 13.75985176727937
SL-8 R/B                
1 21938U 92020B   26204.14475010 -.00000015  00000+0 -30657-4 0  9994
2 21938  82.9274  53.1430 0027758 280.3228 200.3953 13.75549706719755
USA 81                  
1 21949U 92023A   26204.11099366  .00000133  00000+0  41666-4 0  9993
2 21949  85.0047  53.2668 0001619  65.4280 294.7081 14.32406411114174
COSMOS 2219             
1 22219U 92076A   26204.12510211 -.00000296  00000+0 -13071-3 0  9990
2 22219  71.0604  94.9475 0018651 345.8004  14.2592 14.14105453737524
SL-16 R/B               
1 22220U 92076B   26204.17071235 -.00000242  00000+0 -96734-4 0  9994
2 22220  70.9991 262.9810 0015003 251.9431 139.4122 14.16876980741023
COSMOS 2221             
1 22236U 92080A   26204.31076245  .00001452  00000+0  12488-3 0  9993
2 22236  82.5054 149.1559 0015966  95.5705 264.7339 14.96621844801078
SL-16 R/B               
1 22285U 92093B   26204.07181811 -.00000128  00000+0 -41272-4 0  9995
2 22285  71.0209  80.0600 0002189 111.9379 248.1976 14.15463187732318
COSMOS 2228             
1 22286U 92094A   26204.23366385  .00001364  00000+0  11394-3 0  9998
2 22286  82.5184 107.5152 0016920 200.4813 159.5733 14.97692978796341
SL-16 R/B               
1 22566U 93016B   26204.19704166  .00000197  00000+0  12579-3 0  9991
2 22566  71.0086 290.5747 0008403 123.5915 236.6012 14.15317441721348
COSMOS 2242             
1 22626U 93024A   26204.27652547  .00001433  00000+0  12206-3 0  9992
2 22626  82.5203 137.0158 0015264 203.5609 156.4916 14.97002829800673
SL-16 R/B               
1 22803U 93059B   26204.13293453  .00000219  00000+0  13194-3 0  9997
2 22803  70.9902  85.5015 0017151 356.5610   3.5393 14.17251526698728
ARIANE 40 R/B           
1 22830U 93061H   26204.16675154  .00000125  00000+0  61458-4 0  9998
2 22830  98.4800 270.2732 0009692 239.4301 120.5928 14.32920744713506
COSMOS 2278             
1 23087U 94023A   26204.17410076  .00000285  00000+0  17351-3 0  9992
2 23087  71.0514 251.6317 0009192 193.8877 166.1994 14.14396362663964
SL-16 R/B               
1 23088U 94023B   26204.23046290  .00000326  00000+0  19296-3 0  9999
2 23088  71.0001 146.2374 0001196  94.1460 265.9799 14.15029363665266
SL-16 R/B               
1 23343U 94074B   26204.32038372  .00000353  00000+0  53693-4 0  9991
2 23343  97.6985 229.5341 0007690 131.0154 239.4006 14.79529433707302
