OBJECT_NAME,OBJECT_ID,EPOCH,MEAN_MOTION,ECCENTRICITY,INCLINATION,RA_OF_ASC_NODE,ARG_OF_PERICENTER,MEAN_ANOMALY,EPHEMERIS_TYPE,CLASSIFICATION_TYPE,NORAD_CAT_ID,ELEMENT_SET_NO,REV_AT_EPOCH,BSTAR,MEAN_MOTION_DOT,MEAN_MOTION_DDOT
COSMOS 2058,1990-010A,2026-07-23T04:48:50.385024,15.12192297,.00086873,82.4676,273.8362,217.9377,142.1243,0,U,20465,999,96271,.15753591E-3,.2749E-4,0
SL-14 R/B,1990-010B,2026-07-23T05:59:31.996896,14.83666718,.00189113,82.5042,140.0798,209.1752,150.8409,0,U,20466,999,94858,.35556097E-4,.318E-5,0
SL-14 R/B,1990-018B,2026-07-23T04:41:28.667616,14.82237797,.00164102,82.5212,96.4520,11.6136,348.5454,0,U,20511,999,94265,.3449816E-4,.299E-5,0
HST,1990-037B,2026-07-23T06:09:58.917888,15.31122099,.00019282,28.4721,193.9755,181.0239,179.0353,0,U,20580,999,79410,.17776468E-3,.5734E-4,0
SL-16 R/B,1990-046B,2026-07-22T22:19:12.430272,14.15029706,.0012161,71.0000,13.8774,100.4717,259.7776,0,U,20625,999,86752,.14819248E-3,.24E-5,0
COSMOS 2084,1990-055A,2026-07-23T04:16:28.225344,15.06243342,.00091096,62.7872,233.2353,324.7293,35.3204,0,U,20663,999,95672,.10577289E-3,.1357E-4,0
SL-6 R/B(2),1990-055D,2026-07-23T06:48:18.214560,15.04114726,.00463638,62.7814,152.5329,10.1325,350.0698,0,U,20666,999,95858,.1508581E-3,.194E-4,0
SL-8 R/B,1990-078B,2026-07-23T05:56:59.375616,14.93715857,.03426661,82.9030,129.0193,276.0916,80.1369,0,U,20775,999,82950,.2737544E-3,.9654E-4,0
SL-8 R/B,1991-006B,2026-07-23T04:11:40.165152,13.77510541,.00229413,82.9401,69.2576,18.9208,98.8235,0,U,21088,999,78272,.86941052E-4,.102E-5,0
OKEAN-3,1991-039A,2026-07-23T02:21:57.103776,15.05465730,.00131448,82.5152,205.5528,223.9877,136.0305,0,U,21397,999,88540,.14273313E-3,.2081E-4,0
COSMOS 2151,1991-042A,2026-07-23T06:29:41.396064,15.00530339,.00112677,82.4982,312.8585,326.9368,33.1151,0,U,21422,999,88352,.94759683E-4,.1222E-4,0
SL-14 R/B,1991-042B,2026-07-23T03:24:44.832384,14.81921310,.00176578,82.4926,93.1785,151.3927,208.8260,0,U,21423,999,87313,.31488461E-4,.273E-5,0
ERS-1,1991-050A,2026-07-23T07:24:19.951200,14.39537074,.0032395,98.7795,225.8886,157.9436,202.3153,0,U,21574,999,83524,.85224601E-4,.221E-5,0
ARIANE 40 R/B,1991-050F,2026-07-23T02:34:00.943104,14.42975161,.00037595,98.1857,251.1211,43.4344,316.7143,0,U,21610,999,83852,.77315614E-4,.217E-5,0
INTERCOSMOS 25,1991-086A,2026-07-23T02:24:06.323616,12.12249127,.14849351,82.6000,228.0776,184.8719,173.6395,0,U,21819,999,51309,.22782022E-3,.1174E-4,0
SL-8 R/B,1992-008B,2026-07-22T08:08:18.769632,13.75985176,.00359845,82.9281,167.6527,117.2682,35.5369,0,U,21876,999,72793,.13042696E-3,.143E-5,0
SL-8 R/B,1992-020B,2026-07-23T03:28:26.408640,13.75549706,.00277583,82.9274,53.1430,280.3228,200.3953,0,U,21938,999,71975,-.3065704E-4,-.15E-6,0
USA 81,1992-023A,2026-07-23T02:39:49.852224,14.32406411,.00016196,85.0047,53.2668,65.4280,294.7081,0,U,21949,999,11417,.41665586E-4,.133E-5,0
COSMOS 2219,1992-076A,2026-07-23T03:00:08.822304,14.14105453,.00186512,71.0604,94.9475,345.8004,14.2592,0,U,22219,999,73752,-.13071283E-3,-.296E-5,0
SL-16 R/B,1992-076B,2026-07-23T04:05:49.547040,14.16876980,.00150036,70.9991,262.9810,251.9431,139.4122,0,U,22220,999,74102,-.96734282E-4,-.242E-5,0
COSMOS 2221,1992-080A,2026-07-23T07:27:29.875680,14.96621844,.00159669,82.5054,149.1559,95.5705,264.7339,0,U,22236,999,80107,.12487912E-3,.1452E-4,0
SL-16 R/B,1992-093B,2026-07-23T01:43:25.084704,14.15463187,.00021897,71.0209,80.0600,111.9379,248.1976,0,U,22285,999,73231,-.41271571E-4,-.128E-5,0
COSMOS 2228,1992-094A,2026-07-23T05:36:28.556640,14.97692978,.001692,82.5184,107.5152,200.4813,159.5733,0,U,22286,999,79634,.1139411E-3,.1364E-4,0
SL-16 R/B,1993-016B,2026-07-23T04:43:44.399424,14.15317441,.00084036,71.0086,290.5747,123.5915,236.6012,0,U,22566,999,72134,.12578746E-3,.197E-5,0
COSMOS 2242,1993-024A,2026-07-23T06:38:11.800608,14.97002829,.0015264,82.5203,137.0158,203.5609,156.4916,0,U,22626,999,80067,.12206036E-3,.1433E-4,0
SL-16 R/B,1993-059B,2026-07-23T03:11:25.543392,14.17251526,.00171518,70.9902,85.5015,356.5610,3.5393,0,U,22803,999,69872,.13193643E-3,.219E-5,0
ARIANE 40 R/B,1993-061H,2026-07-23T04:00:07.333056,14.32920744,.0009692,98.4800,270.2732,239.4301,120.5928,0,U,22830,999,71350,.61458256E-4,.125E-5,0
COSMOS 2278,1994-023A,2026-07-23T04:10:42.305664,14.14396362,.00091928,71.0514,251.6317,193.8877,166.1994,0,U,23087,999,66396,.17350594E-3,.285E-5,0
SL-16 R/B,1994-023B,2026-07-23T05:31:51.994560,14.15029363,.00011963,71.0001,146.2374,94.1460,265.9799,0,U,23088,999,66526,.1929579E-3,.326E-5,0
SL-16 R/B,1994-074B,2026-07-23T07:41:21.153408,14.79529433,.00076901,97.6985,229.5341,131.0154,239.4006,0,U,23343,999,70730,.53693008E-4,.353E-5,0
